[Satellite]
VERSION=1.1
NAME=ECHOSTAR 8
NICKNAME=ECHOSTAR 8
TLE1=1 27501U 02039A   15055.19178841 -.00000267  00000-0  10000-3 0  9994
TLE2=2 27501   0.0065 198.6012 0002459 145.6367 161.5900  1.00268881 45855
